{"fetched_at":"2026-03-29T02:12:04Z","count":15717,"tles":[{"name":"TJS-4","line1":"1 44637U 19070A   26086.56296551  .00000000  00000+0  00000+0 0  9990","line2":"2 44637   0.0142 183.8744 0002369 205.5226  81.7124  1.00266022 23726","category":"Other"}]}